ONEWEB-0589             
1 54655U 22166P   25092.41643895 -.00000032  00000+0 -10855-3 0  9998
2 54655  87.9308 331.8800 0002378 100.1832 259.9570 13.21826029113310
ONEWEB-0590             
1 54656U 22166Q   25092.59098396  .00000007  00000+0 -15059-4 0  9991
2 54656  87.9295 331.8360 0001370  93.5280 266.6010 13.21727322113321
ONEWEB-0591             
1 54657U 22166R   25092.90688894 -.00000360  00000+0 -90387-3 0  9994
2 54657  87.9299 331.7833 0001871  85.7249 274.4099 13.21825524113859
ONEWEB-0592             
1 54658U 22166S   25092.60725679  .00000012  00000+0 -33456-5 0  9994
2 54658  87.9305 331.7980 0001786  86.6360 273.4979 13.21825429113232
ONEWEB-0593             
1 54659U 22166T   25092.40382047 -.00000016  00000+0 -70368-4 0  9998
2 54659  87.9309 331.8744 0001855  86.9023 273.2324 13.21824292113310
ONEWEB-0594             
1 54660U 22166U   25092.57413451 -.00000067  00000+0 -19459-3 0  9991
2 54660  87.9312 331.8504 0001777  79.9104 280.2230 13.21828167113358
ONEWEB-0595             
1 54661U 22166V   25092.70345402 -.00000012  00000+0 -60827-4 0  9993
2 54661  87.9309 331.8051 0001547  77.3816 282.7491 13.21824828113816
ONEWEB-0596             
1 54662U 22166W   25092.90375341  .00000045  00000+0  77013-4 0  9990
2 54662  87.9310 331.7762 0001661  82.9230 277.2093 13.21828491113846
